STARLINK-31305          
1 59232U 24049B   26068.26605231 -.00003517  00000+0 -11838-3 0  9998
2 59232  43.0033 145.7122 0001297 267.3555  92.7148 15.27570268112323
FLOCK 4G-18             
1 62680U 25009BZ  26068.19114186  .00011766  00000+0  44319-3 0  9995
2 62680  97.4054 150.5008 0004100 335.7331  24.3715 15.27241676121267
